NORAD_CAT_ID,OBJECT_NAME,OBJECT_TYPE,EPOCH,MEAN_MOTION,ECCENTRICITY,INCLINATION,RA_OF_ASC_NODE,ARG_OF_PERICENTER,MEAN_ANOMALY,BSTAR,MEAN_MOTION_DOT,MEAN_MOTION_DDOT,TLE_LINE0,TLE_LINE1,TLE_LINE2,SEMIMAJOR_AXIS,PERIOD,APOGEE,PERIGEE,DECAYED
53993.0,STARLINK-5121,PAYLOAD,2023-06-14 20:08:28,15.08832978,9.61e-05,53.2173,12.8863,89.2864,270.8238,-4.4447e-06,-3.58e-06,0.0,0 STARLINK-5121,1 53993U 22125AF  23165.83922172 -.00000358  00000-0 -44447-5 0  9998,2 53993  53.2173  12.8863 0000961  89.2864 270.8238 15.08832978 38735,6917.902,95.438,540.432,539.102,0.0
53993.0,STARLINK-5121,PAYLOAD,2023-06-14 23:19:14,15.08837624,0.0001093,53.2172,12.2919,95.1302,264.9815,3.6366e-05,2.91e-06,0.0,0 STARLINK-5121,1 53993U 22125AF  23165.97169992  .00000291  00000-0  36366-4 0  9990,2 53993  53.2172  12.2919 0001093  95.1302 264.9815 15.08837624 38839,6917.888,95.438,540.509,538.997,0.0
53993.0,STARLINK-5121,PAYLOAD,2023-06-15 13:37:43,15.08842566,0.0001055,53.2175,9.6153,94.5954,265.5158,9.3105e-05,1.194e-05,0.0,0 STARLINK-5121,1 53993U 22125AF  23166.56785907  .00001194  00000-0  93105-4 0  9993,2 53993  53.2175   9.6153 0001055  94.5954 265.5158 15.08842566 38845,6917.873,95.437,540.467,539.008,0.0
53993.0,STARLINK-5121,PAYLOAD,2023-06-15 18:23:52,15.08846181,0.0001061,53.2173,8.7236,93.8453,266.2661,0.00015935,2.25e-05,0.0,0 STARLINK-5121,1 53993U 22125AF  23166.76657746  .00002250  00000-0  15935-3 0  9992,2 53993  53.2173   8.7236 0001061  93.8453 266.2661 15.08846181 38875,6917.861,95.437,540.46,538.993,0.0
53993.0,STARLINK-5121,PAYLOAD,2023-06-15 23:10:01,15.08852627,9.69e-05,53.2175,7.8317,88.2404,271.8699,0.00026425,3.922e-05,0.0,0 STARLINK-5121,1 53993U 22125AF  23166.96529457  .00003922  00000-0  26425-3 0  9994,2 53993  53.2175   7.8317 0000969  88.2404 271.8699 15.08852627 38984,6917.842,95.437,540.377,539.036,0.0
53993.0,STARLINK-5121,PAYLOAD,2023-06-16 19:50:02,15.08835638,0.000109,53.2174,3.9667,85.8066,274.3051,-0.00023305,-3.994e-05,0.0,0 STARLINK-5121,1 53993U 22125AF  23167.82641305 -.00003994  00000-0 -23305-3 0  9992,2 53993  53.2174   3.9667 0001090  85.8066 274.3051 15.08835638 39031,6917.894,95.438,540.513,539.005,0.0
53993.0,STARLINK-5121,PAYLOAD,2023-06-16 23:00:48,15.08836953,0.0001087,53.2169,3.3712,85.9103,274.2014,-0.00019157,-3.335e-05,0.0,0 STARLINK-5121,1 53993U 22125AF  23167.95889274 -.00003335  00000-0 -19157-3 0  9994,2 53993  53.2169   3.3712 0001087  85.9103 274.2014 15.08836953 39139,6917.89,95.438,540.507,539.003,0.0
53993.0,STARLINK-5121,PAYLOAD,2023-06-17 19:40:49,15.08828647,0.0001143,53.2174,359.5058,85.3499,274.7623,-0.00014433,-2.583e-05,0.0,0 STARLINK-5121,1 53993U 22125AF  23168.82002003 -.00002583  00000-0 -14433-3 0  9994,2 53993  53.2174 359.5058 0001143  85.3499 274.7623 15.08828647 39186,6917.915,95.438,540.571,538.989,0.0
53993.0,STARLINK-5121,PAYLOAD,2023-06-18 05:13:08,15.08833809,0.0001119,53.2178,357.7215,87.6514,272.4606,0.00010896,1.446e-05,0.0,0 STARLINK-5121,1 53993U 22125AF  23169.21746338  .00001446  00000-0  10896-3 0  9998,2 53993  53.2178 357.7215 0001119  87.6514 272.4606 15.08833809 39329,6917.899,95.438,540.538,538.99,0.0
53993.0,STARLINK-5121,PAYLOAD,2023-06-18 13:10:04,15.08836565,0.0001125,53.2176,356.2346,88.0093,272.1028,0.00041649,6.346e-05,0.0,0 STARLINK-5121,1 53993U 22125AF  23169.54866536  .00006346  00000-0  41649-3 0  9991,2 53993  53.2176 356.2346 0001125  88.0093 272.1028 15.08836565 39293,6917.891,95.438,540.534,538.978,0.0
53993.0,STARLINK-5121,PAYLOAD,2023-06-18 19:31:37,15.08846093,0.0001144,53.2178,355.0453,87.6622,272.4501,0.00056797,8.764e-05,0.0,0 STARLINK-5121,1 53993U 22125AF  23169.81362362  .00008764  00000-0  56797-3 0  9995,2 53993  53.2178 355.0453 0001144  87.6622 272.4501 15.08846093 39336,6917.862,95.437,540.518,538.935,0.0
53993.0,STARLINK-5121,PAYLOAD,2023-06-19 06:39:18,15.08846369,0.0001053,53.2172,352.9643,90.6195,269.4918,0.00043806,6.692e-05,0.0,0 STARLINK-5121,1 53993U 22125AF  23170.27730270  .00006692  00000-0  43806-3 0  9999,2 53993  53.2172 352.9643 0001053  90.6195 269.4918 15.08846369 39407,6917.861,95.437,540.454,538.997,0.0
53993.0,STARLINK-5121,PAYLOAD,2023-06-19 14:36:14,15.08840904,0.000102,53.2169,351.4772,90.4668,269.6441,9.3396e-05,1.199e-05,0.0,0 STARLINK-5121,1 53993U 22125AF  23170.60850328  .00001199  00000-0  93396-4 0  9990,2 53993  53.2169 351.4772 0001020  90.4668 269.6441 15.08840904 39533,6917.878,95.437,540.448,539.037,0.0
53993.0,STARLINK-5121,PAYLOAD,2023-06-20 11:16:15,15.08837664,9e-05,53.2169,347.6117,92.3538,267.7557,1.675e-05,-2.1e-07,0.0,0 STARLINK-5121,1 53993U 22125AF  23171.46962412 -.00000021  00000-0  16750-4 0  9996,2 53993  53.2169 347.6117 0000900  92.3538 267.7557 15.08837664 39587,6917.888,95.438,540.375,539.13,0.0
53993.0,STARLINK-5121,PAYLOAD,2023-06-20 17:37:47,15.08843064,0.0001031,53.217,346.4227,98.9362,261.1747,5.8434e-05,6.42e-06,0.0,0 STARLINK-5121,1 53993U 22125AF  23171.73458296  .00000642  00000-0  58434-4 0  9999,2 53993  53.2170 346.4227 0001031  98.9362 261.1747 15.08843064 39705,6917.871,95.437,540.449,539.023,0.0
53993.0,STARLINK-5121,PAYLOAD,2023-06-20 20:48:33,15.08848575,0.0001077,53.2172,345.8277,91.8818,268.2297,0.00011707,1.576e-05,0.0,0 STARLINK-5121,1 53993U 22125AF  23171.86705983  .00001576  00000-0  11707-3 0  9999,2 53993  53.2172 345.8277 0001077  91.8818 268.2297 15.08848575 39646,6917.854,95.437,540.464,538.974,0.0
53993.0,STARLINK-5121,PAYLOAD,2023-06-21 11:07:02,15.08837761,9.7e-05,53.2174,343.1513,81.5215,278.5887,5.6739e-05,6.15e-06,0.0,0 STARLINK-5121,1 53993U 22125AF  23172.46322598  .00000615  00000-0  56739-4 0  9991,2 53993  53.2174 343.1513 0000970  81.5215 278.5887 15.08837761 39813,6917.887,95.438,540.423,539.081,0.0
53993.0,STARLINK-5121,PAYLOAD,2023-06-21 19:03:58,15.08844099,0.0001059,53.2172,341.6647,86.1203,273.991,9.79e-05,1.271e-05,0.0,0 STARLINK-5121,1 53993U 22125AF  23172.79442311  .00001271  00000-0  97900-4 0  9997,2 53993  53.2172 341.6647 0001059  86.1203 273.9910 15.08844099 39783,6917.868,95.437,540.465,539.0,0.0
53993.0,STARLINK-5121,PAYLOAD,2023-06-22 17:19:22,15.08842673,9.79e-05,53.2179,337.5014,97.1581,262.9522,0.00011754,1.584e-05,0.0,0 STARLINK-5121,1 53993U 22125AF  23173.72178445  .00001584  00000-0  11754-3 0  9994,2 53993  53.2179 337.5014 0000979  97.1581 262.9522 15.08842673 40003,6917.872,95.437,540.414,539.06,0.0
53993.0,STARLINK-5121,PAYLOAD,2023-06-23 17:10:08,15.0885336,0.0001001,53.2169,333.0425,78.0158,282.0946,0.00029772,4.455e-05,0.0,0 STARLINK-5121,1 53993U 22125AF  23174.71537955  .00004455  00000-0  29772-3 0  9998,2 53993  53.2169 333.0425 0001001  78.0158 282.0946 15.08853360 40158,6917.84,95.437,540.397,539.012,0.0
53993.0,STARLINK-5121,PAYLOAD,2023-06-24 17:00:56,15.08841323,0.0001132,53.2172,328.5796,86.5277,273.5844,9.3735e-05,1.204e-05,0.0,0 STARLINK-5121,1 53993U 22125AF  23175.70898547  .00001204  00000-0  93735-4 0  9995,2 53993  53.2172 328.5796 0001132  86.5277 273.5844 15.08841323 40308,6917.876,95.437,540.524,538.958,0.0
53993.0,STARLINK-5121,PAYLOAD,2023-06-26 02:24:02,15.0884132,0.0001118,53.2171,322.3366,74.0652,286.0463,3.4297e-05,2.58e-06,0.0,0 STARLINK-5121,1 53993U 22125AF  23177.10002633  .00000258  00000-0  34297-4 0  9990,2 53993  53.2171 322.3366 0001118  74.0652 286.0463 15.08841320 40511,6917.876,95.437,540.515,538.968,0.0
53993.0,STARLINK-5121,PAYLOAD,2023-06-26 05:34:49,15.08824514,0.0001405,53.2158,321.7427,90.5418,269.5735,0.00046044,7.044e-05,0.0,0 STARLINK-5121,1 53993U 22125AF  23177.23251587  .00007044  00000-0  46044-3 0  9990,2 53993  53.2158 321.7427 0001405  90.5418 269.5735 15.08824514 40535,6917.928,95.439,540.765,538.821,0.0
53993.0,STARLINK-5121,PAYLOAD,2023-06-26 18:17:55,15.08809438,0.0001319,53.217,319.3647,84.2461,275.8682,0.00087765,0.00013696,0.0,0 STARLINK-5121,1 53993U 22125AF  23177.76244747  .00013696  00000-0  87765-3 0  9993,2 53993  53.2170 319.3647 0001319  84.2461 275.8682 15.08809438 40616,6917.974,95.439,540.751,538.926,0.0
53993.0,STARLINK-5121,PAYLOAD,2023-06-27 03:50:13,15.08835149,0.0001243,53.2172,317.5796,94.3126,265.8008,8.7896e-05,1.111e-05,0.0,0 STARLINK-5121,1 53993U 22125AF  23178.15987469  .00001111  00000-0  87896-4 0  9997,2 53993  53.2172 317.5796 0001243  94.3126 265.8008 15.08835149 40674,6917.895,95.438,540.62,538.9,0.0
53993.0,STARLINK-5121,PAYLOAD,2023-06-28 16:24:05,15.08843544,0.0001096,53.2175,310.741,79.0515,281.0601,0.00020312,2.947e-05,0.0,0 STARLINK-5121,1 53993U 22125AF  23179.68339523  .00002947  00000-0  20312-3 0  9995,2 53993  53.2175 310.7410 0001096  79.0515 281.0601 15.08843544 40906,6917.87,95.437,540.493,538.976,0.0
53993.0,STARLINK-5121,PAYLOAD,2023-06-29 08:17:57,15.08833272,0.0001108,53.2161,307.7669,63.2376,296.873,1.265e-05,-8.6e-07,0.0,0 STARLINK-5121,1 53993U 22125AF  23180.34580080 -.00000086  00000-0  12650-4 0  9996,2 53993  53.2161 307.7669 0001108  63.2376 296.8730 15.08833272 41003,6917.901,95.438,540.532,538.999,0.0
53993.0,STARLINK-5121,PAYLOAD,2023-07-01 01:37:58,15.08844841,9.74e-05,53.2162,300.0353,83.1301,276.9802,0.00018438,2.648e-05,0.0,0 STARLINK-5121,1 53993U 22125AF  23182.06803516  .00002648  00000-0  18438-3 0  9993,2 53993  53.2162 300.0353 0000974  83.1301 276.9802 15.08844841 41260,6917.866,95.437,540.404,539.057,0.0
53993.0,STARLINK-5121,PAYLOAD,2023-07-02 11:01:04,15.0883993,0.0001176,53.2172,293.7906,91.0041,269.1086,6.3807e-05,7.28e-06,0.0,0 STARLINK-5121,1 53993U 22125AF  23183.45907739  .00000728  00000-0  63807-4 0  9997,2 53993  53.2172 293.7906 0001176  91.0041 269.1086 15.08839930 41471,6917.881,95.438,540.559,538.932,0.0
53993.0,STARLINK-5121,PAYLOAD,2023-07-03 12:27:14,15.0884277,0.0001072,53.218,289.0327,95.9662,264.1452,0.0001124,1.502e-05,0.0,0 STARLINK-5121,1 53993U 22125AF  23184.51891507  .00001502  00000-0  11240-3 0  9994,2 53993  53.2180 289.0327 0001072  95.9662 264.1452 15.08842770 41638,6917.872,95.437,540.479,538.995,0.0
